STARLINK-36364          
1 67978U 26038T   26080.50001157 -.02306766  00000+0 -34057-1 0  9992
2 67978  97.2852  91.4038 0001862  87.3352  24.8245 15.58738925  5106
STARLINK-36359          
1 67979U 26038U   26080.50001157 -.02240154  00000+0 -38456-1 0  9998
2 67979  97.2850  91.3700 0001345  98.2792 287.9129 15.54605342  5100
STARLINK-36882          
1 67980U 26038V   26080.50001157 -.02121097  00000+0 -39862-1 0  9996
2 67980  97.2856  91.3610 0001454  94.7752 273.9647 15.51923131  5102
STARLINK-36874          
1 67981U 26038W   26080.50001157 -.02306073  00000+0 -33387-1 0  9992
2 67981  97.2849  91.4079 0001798  81.7953  42.2856 15.59252575  5109
STARLINK-36879          
1 67982U 26038X   26080.50001157 -.00111891  00000+0 -20821-2 0  9993
2 67982  97.2858  91.2567 0001305 116.0020  10.3084 15.49228761  5109
STARLINK-36867          
1 67983U 26038Y   26080.50001157 -.00116870  00000+0 -21760-2 0  9999
2 67983  97.2855  91.2897 0001506  90.2357 110.0841 15.49230146  5101
STARLINK-36266          
1 67984U 26038Z   26080.50001157 -.02301788  00000+0 -32720-1 0  9993
2 67984  97.2852  91.4166 0001921  92.4332  52.9105 15.59723442  5078
STARLINK-36802          
1 67985U 26038AA  26080.58396466  .00177654  00000+0  11630-2 0  9999
2 67985  97.2889  91.5359 0001935 152.6346 207.5022 15.75274763  5063
STARLINK-36535          
1 67986U 26039A   26080.50001157 -.01935874  00000+0 -34161-1 0  9995
2 67986  42.9994 343.4824 0001314 258.7434 160.0384 15.52634986  4774
STARLINK-36744          
1 67987U 26039B   26080.50001157 -.01894620  00000+0 -32241-1 0  9996
2 67987  42.9993 343.3818 0001568 266.8357 192.4364 15.54095992  4778
STARLINK-36734          
1 67988U 26039C   26080.43793734  .00126524  00000+0  21224-2 0  9996
2 67988  42.9987 344.9118 0001590 273.9499  86.1180 15.50651057  3470
STARLINK-36957          
1 67989U 26039D   26080.50001157 -.01752579  00000+0 -30840-1 0  9997
2 67989  42.9998 343.4283 0001396 259.9819 179.8852 15.52913928  4774
STARLINK-36951          
1 67990U 26039E   26080.50001157 -.00088318  00000+0 -15161-2 0  9991
2 67990  42.9995 343.6785 0001548 258.3129  79.8751 15.50588423  4771
STARLINK-36941          
1 67991U 26039F   26080.43732700  .00093344  00000+0  15745-2 0  9990
2 67991  42.9983 344.9050 0000755 296.5561  63.5221 15.50641321  3476
STARLINK-36950          
1 67992U 26039G   26080.50001157 -.00246484  00000+0 -43080-2 0  9994
2 67992  43.0001 344.1606 0001784 268.7756 234.3264 15.50714756  4771
STARLINK-36975          
1 67993U 26039H   26080.50001157 -.00232462  00000+0 -40596-2 0  9995
2 67993  43.0000 344.0634 0001567 265.7625 276.6623 15.50686952  4776
