[{"OBJECT_NAME":"STARLINK-36364","OBJECT_ID":"2026-038T","EPOCH":"2026-03-21T12:00:00.999648","MEAN_MOTION":15.58738925,"ECCENTRICITY":0.00018629,"INCLINATION":97.2852,"RA_OF_ASC_NODE":91.4038,"ARG_OF_PERICENTER":87.3352,"MEAN_ANOMALY":24.8245,"EPHEMERIS_TYPE":0,"CLASSIFICATION_TYPE":"U","NORAD_CAT_ID":67978,"ELEMENT_SET_NO":999,"REV_AT_EPOCH":510,"BSTAR":-0.034056844,"MEAN_MOTION_DOT":-0.02306766,"MEAN_MOTION_DDOT":0},{"OBJECT_NAME":"STARLINK-36359","OBJECT_ID":"2026-038U","EPOCH":"2026-03-21T12:00:00.999648","MEAN_MOTION":15.54605342,"ECCENTRICITY":0.00013459,"INCLINATION":97.285,"RA_OF_ASC_NODE":91.37,"ARG_OF_PERICENTER":98.2792,"MEAN_ANOMALY":287.9129,"EPHEMERIS_TYPE":0,"CLASSIFICATION_TYPE":"U","NORAD_CAT_ID":67979,"ELEMENT_SET_NO":999,"REV_AT_EPOCH":510,"BSTAR":-0.03845576,"MEAN_MOTION_DOT":-0.02240154,"MEAN_MOTION_DDOT":0},{"OBJECT_NAME":"STARLINK-36882","OBJECT_ID":"2026-038V","EPOCH":"2026-03-21T12:00:00.999648","MEAN_MOTION":15.51923131,"ECCENTRICITY":0.00014549,"INCLINATION":97.2856,"RA_OF_ASC_NODE":91.361,"ARG_OF_PERICENTER":94.7752,"MEAN_ANOMALY":273.9647,"EPHEMERIS_TYPE":0,"CLASSIFICATION_TYPE":"U","NORAD_CAT_ID":67980,"ELEMENT_SET_NO":999,"REV_AT_EPOCH":510,"BSTAR":-0.03986247,"MEAN_MOTION_DOT":-0.02121097,"MEAN_MOTION_DDOT":0},{"OBJECT_NAME":"STARLINK-36874","OBJECT_ID":"2026-038W","EPOCH":"2026-03-21T12:00:00.999648","MEAN_MOTION":15.59252575,"ECCENTRICITY":0.00017982,"INCLINATION":97.2849,"RA_OF_ASC_NODE":91.4079,"ARG_OF_PERICENTER":81.7953,"MEAN_ANOMALY":42.2856,"EPHEMERIS_TYPE":0,"CLASSIFICATION_TYPE":"U","NORAD_CAT_ID":67981,"ELEMENT_SET_NO":999,"REV_AT_EPOCH":510,"BSTAR":-0.033386832,"MEAN_MOTION_DOT":-0.02306073,"MEAN_MOTION_DDOT":0},{"OBJECT_NAME":"STARLINK-36879","OBJECT_ID":"2026-038X","EPOCH":"2026-03-21T12:00:00.999648","MEAN_MOTION":15.49228761,"ECCENTRICITY":0.00013055,"INCLINATION":97.2858,"RA_OF_ASC_NODE":91.2567,"ARG_OF_PERICENTER":116.002,"MEAN_ANOMALY":10.3084,"EPHEMERIS_TYPE":0,"CLASSIFICATION_TYPE":"U","NORAD_CAT_ID":67982,"ELEMENT_SET_NO":999,"REV_AT_EPOCH":510,"BSTAR":-0.002082059,"MEAN_MOTION_DOT":-0.00111891,"MEAN_MOTION_DDOT":0},{"OBJECT_NAME":"STARLINK-36867","OBJECT_ID":"2026-038Y","EPOCH":"2026-03-21T12:00:00.999648","MEAN_MOTION":15.49230146,"ECCENTRICITY":0.00015061,"INCLINATION":97.2855,"RA_OF_ASC_NODE":91.2897,"ARG_OF_PERICENTER":90.2357,"MEAN_ANOMALY":110.0841,"EPHEMERIS_TYPE":0,"CLASSIFICATION_TYPE":"U","NORAD_CAT_ID":67983,"ELEMENT_SET_NO":999,"REV_AT_EPOCH":510,"BSTAR":-0.0021760037,"MEAN_MOTION_DOT":-0.0011687,"MEAN_MOTION_DDOT":0},{"OBJECT_NAME":"STARLINK-36266","OBJECT_ID":"2026-038Z","EPOCH":"2026-03-21T12:00:00.999648","MEAN_MOTION":15.59723442,"ECCENTRICITY":0.00019215,"INCLINATION":97.2852,"RA_OF_ASC_NODE":91.4166,"ARG_OF_PERICENTER":92.4332,"MEAN_ANOMALY":52.9105,"EPHEMERIS_TYPE":0,"CLASSIFICATION_TYPE":"U","NORAD_CAT_ID":67984,"ELEMENT_SET_NO":999,"REV_AT_EPOCH":507,"BSTAR":-0.032720415,"MEAN_MOTION_DOT":-0.02301788,"MEAN_MOTION_DDOT":0},{"OBJECT_NAME":"STARLINK-36802","OBJECT_ID":"2026-038AA","EPOCH":"2026-03-21T14:00:54.546624","MEAN_MOTION":15.75274763,"ECCENTRICITY":0.00019354,"INCLINATION":97.2889,"RA_OF_ASC_NODE":91.5359,"ARG_OF_PERICENTER":152.6346,"MEAN_ANOMALY":207.5022,"EPHEMERIS_TYPE":0,"CLASSIFICATION_TYPE":"U","NORAD_CAT_ID":67985,"ELEMENT_SET_NO":999,"REV_AT_EPOCH":506,"BSTAR":0.001163032,"MEAN_MOTION_DOT":0.00177654,"MEAN_MOTION_DDOT":0},{"OBJECT_NAME":"STARLINK-36535","OBJECT_ID":"2026-039A","EPOCH":"2026-03-21T12:00:00.999648","MEAN_MOTION":15.52634986,"ECCENTRICITY":0.00013141,"INCLINATION":42.9994,"RA_OF_ASC_NODE":343.4824,"ARG_OF_PERICENTER":258.7434,"MEAN_ANOMALY":160.0384,"EPHEMERIS_TYPE":0,"CLASSIFICATION_TYPE":"U","NORAD_CAT_ID":67986,"ELEMENT_SET_NO":999,"REV_AT_EPOCH":477,"BSTAR":-0.034160648,"MEAN_MOTION_DOT":-0.01935874,"MEAN_MOTION_DDOT":0},{"OBJECT_NAME":"STARLINK-36744","OBJECT_ID":"2026-039B","EPOCH":"2026-03-21T12:00:00.999648","MEAN_MOTION":15.54095992,"ECCENTRICITY":0.0001568,"INCLINATION":42.9993,"RA_OF_ASC_NODE":343.3818,"ARG_OF_PERICENTER":266.8357,"MEAN_ANOMALY":192.4364,"EPHEMERIS_TYPE":0,"CLASSIFICATION_TYPE":"U","NORAD_CAT_ID":67987,"ELEMENT_SET_NO":999,"REV_AT_EPOCH":477,"BSTAR":-0.032240501,"MEAN_MOTION_DOT":-0.0189462,"MEAN_MOTION_DDOT":0},{"OBJECT_NAME":"STARLINK-36734","OBJECT_ID":"2026-039C","EPOCH":"2026-03-21T10:30:37.786176","MEAN_MOTION":15.50651057,"ECCENTRICITY":0.00015907,"INCLINATION":42.9987,"RA_OF_ASC_NODE":344.9118,"ARG_OF_PERICENTER":273.9499,"MEAN_ANOMALY":86.118,"EPHEMERIS_TYPE":0,"CLASSIFICATION_TYPE":"U","NORAD_CAT_ID":67988,"ELEMENT_SET_NO":999,"REV_AT_EPOCH":347,"BSTAR":0.0021223571,"MEAN_MOTION_DOT":0.00126524,"MEAN_MOTION_DDOT":0},{"OBJECT_NAME":"STARLINK-36957","OBJECT_ID":"2026-039D","EPOCH":"2026-03-21T12:00:00.999648","MEAN_MOTION":15.52913928,"ECCENTRICITY":0.00013969,"INCLINATION":42.9998,"RA_OF_ASC_NODE":343.4283,"ARG_OF_PERICENTER":259.9819,"MEAN_ANOMALY":179.8852,"EPHEMERIS_TYPE":0,"CLASSIFICATION_TYPE":"U","NORAD_CAT_ID":67989,"ELEMENT_SET_NO":999,"REV_AT_EPOCH":477,"BSTAR":-0.030839913,"MEAN_MOTION_DOT":-0.01752579,"MEAN_MOTION_DDOT":0},{"OBJECT_NAME":"STARLINK-36951","OBJECT_ID":"2026-039E","EPOCH":"2026-03-21T12:00:00.999648","MEAN_MOTION":15.50588423,"ECCENTRICITY":0.00015482,"INCLINATION":42.9995,"RA_OF_ASC_NODE":343.6785,"ARG_OF_PERICENTER":258.3129,"MEAN_ANOMALY":79.8751,"EPHEMERIS_TYPE":0,"CLASSIFICATION_TYPE":"U","NORAD_CAT_ID":67990,"ELEMENT_SET_NO":999,"REV_AT_EPOCH":477,"BSTAR":-0.0015160964,"MEAN_MOTION_DOT":-0.00088318,"MEAN_MOTION_DDOT":0},{"OBJECT_NAME":"STARLINK-36941","OBJECT_ID":"2026-039F","EPOCH":"2026-03-21T10:29:45.052800","MEAN_MOTION":15.50641321,"ECCENTRICITY":7.55e-5,"INCLINATION":42.9983,"RA_OF_ASC_NODE":344.905,"ARG_OF_PERICENTER":296.5561,"MEAN_ANOMALY":63.5221,"EPHEMERIS_TYPE":0,"CLASSIFICATION_TYPE":"U","NORAD_CAT_ID":67991,"ELEMENT_SET_NO":999,"REV_AT_EPOCH":347,"BSTAR":0.0015745328,"MEAN_MOTION_DOT":0.00093344,"MEAN_MOTION_DDOT":0},{"OBJECT_NAME":"STARLINK-36950","OBJECT_ID":"2026-039G","EPOCH":"2026-03-21T12:00:00.999648","MEAN_MOTION":15.50714756,"ECCENTRICITY":0.00017842,"INCLINATION":43.0001,"RA_OF_ASC_NODE":344.1606,"ARG_OF_PERICENTER":268.7756,"MEAN_ANOMALY":234.3264,"EPHEMERIS_TYPE":0,"CLASSIFICATION_TYPE":"U","NORAD_CAT_ID":67992,"ELEMENT_SET_NO":999,"REV_AT_EPOCH":477,"BSTAR":-0.0043079942,"MEAN_MOTION_DOT":-0.00246484,"MEAN_MOTION_DDOT":0},{"OBJECT_NAME":"STARLINK-36975","OBJECT_ID":"2026-039H","EPOCH":"2026-03-21T12:00:00.999648","MEAN_MOTION":15.50686952,"ECCENTRICITY":0.00015676,"INCLINATION":43,"RA_OF_ASC_NODE":344.0634,"ARG_OF_PERICENTER":265.7625,"MEAN_ANOMALY":276.6623,"EPHEMERIS_TYPE":0,"CLASSIFICATION_TYPE":"U","NORAD_CAT_ID":67993,"ELEMENT_SET_NO":999,"REV_AT_EPOCH":477,"BSTAR":-0.0040595554,"MEAN_MOTION_DOT":-0.00232462,"MEAN_MOTION_DDOT":0}]
